XRISM                   
1 57800U 23137A   24161.91409203  .00008012  00000+0  60381-3 0  9999
2 57800  31.0045  58.9095 0009292 137.3472 222.7886 15.01143135 41510
